[{"OBJECT_NAME":"ERNST","OBJECT_ID":"2024-149BN","EPOCH":"2026-03-09T19:27:38.265120","MEAN_MOTION":15.36382433,"ECCENTRICITY":0.00049076,"INCLINATION":97.3842,"RA_OF_ASC_NODE":151.9807,"ARG_OF_PERICENTER":295.1196,"MEAN_ANOMALY":64.9538,"EPHEMERIS_TYPE":0,"CLASSIFICATION_TYPE":"U","NORAD_CAT_ID":60528,"ELEMENT_SET_NO":999,"REV_AT_EPOCH":8700,"BSTAR":0.00049130979,"MEAN_MOTION_DOT":0.00017377,"MEAN_MOTION_DDOT":0},{"OBJECT_NAME":"KUIPER-00260","OBJECT_ID":"2026-030Z","EPOCH":"2026-03-09T14:53:08.171808","MEAN_MOTION":15.36527197,"ECCENTRICITY":0.0001391,"INCLINATION":51.8799,"RA_OF_ASC_NODE":219.3544,"ARG_OF_PERICENTER":50.4119,"MEAN_ANOMALY":309.699,"EPHEMERIS_TYPE":0,"CLASSIFICATION_TYPE":"U","NORAD_CAT_ID":67787,"ELEMENT_SET_NO":999,"REV_AT_EPOCH":499,"BSTAR":0.00095058,"MEAN_MOTION_DOT":0.00034182,"MEAN_MOTION_DDOT":0}]
